GPS BIIR-5  (PRN 22)    
1 26407U 00040A   26163.32110391  .00000084  00000+0  00000+0 0  9991
2 26407  54.8520 215.3556 0121076 302.4522  67.8911  2.00557597189850
GPS BIIR-8  (PRN 16)    
1 27663U 03005A   26163.16289531  .00000084  00000+0  00000+0 0  9995
2 27663  54.8829 215.1687 0147930  53.0708 338.9785  2.00560784171216
GPS BIIR-11 (PRN 19)    
1 28190U 04009A   26162.92611682 -.00000037  00000+0  00000+0 0  9994
2 28190  54.8343 275.8999 0115929 172.8401 201.5015  2.00554824162843
GPS BIIR-13 (PRN 02)    
1 28474U 04045A   26162.34320756 -.00000066  00000+0  00000+0 0  9996
2 28474  55.1399 325.1314 0169872 316.2822  62.1293  2.00555552158315
GPS BIIRM-1 (PRN 17)    
1 28874U 05038A   26162.93517096 -.00000034  00000+0  00000+0 0  9998
2 28874  54.8825 273.3896 0127828 296.1108 113.2045  2.00565961151733
GPS BIIRM-2 (PRN 31)    
1 29486U 06042A   26163.13594365  .00000097  00000+0  00000+0 0  9999
2 29486  54.7101 151.5395 0106514  54.2915  38.3811  2.00570092144290
GPS BIIRM-3 (PRN 12)    
1 29601U 06052A   26161.93672684  .00000078  00000+0  00000+0 0  9995
2 29601  54.9356 214.2541 0085247  90.7995 270.2610  2.00557843143286
GPS BIIRM-4 (PRN 15)    
1 32260U 07047A   26162.24162698 -.00000032  00000+0  00000+0 0  9990
2 32260  54.0909  80.3107 0166560  87.2611 274.6384  2.00555467136693
GPS BIIRM-5 (PRN 29)    
1 32384U 07062A   26162.00193079 -.00000038  00000+0  00000+0 0  9991
2 32384  55.0367 274.4015 0035635 165.0205 149.1612  2.00559715135380
GPS BIIRM-6 (PRN 07)    
1 32711U 08012A   26163.15061438  .00000094  00000+0  00000+0 0  9992
2 32711  54.4967 150.1259 0211187 247.7837 109.9640  2.00572244133655
GPS BIIRM-8 (PRN 05)    
1 35752U 09043A   26163.29215050 -.00000064  00000+0  00000+0 0  9999
2 35752  56.2072  27.6438 0053759  83.0379  29.3335  2.00554420123266
GPS BIIF-1  (PRN 25)    
1 36585U 10022A   26162.97231094  .00000093  00000+0  00000+0 0  9994
2 36585  54.2706 208.7721 0126335  66.1306 293.7804  2.00562130117485
GPS BIIF-3  (PRN 24)    
1 38833U 12053A   26162.33343058  .00000092  00000+0  00000+0 0  9991
2 38833  53.5848 143.8391 0179946  65.6739 296.1889  2.00567339 99322
GPS BIIF-4  (PRN 27)    
1 39166U 13023A   26163.19736196 -.00000026  00000+0  00000+0 0  9991
2 39166  54.5081 269.1770 0141562  51.0276 310.2429  2.00563421 95785
GPS BIIF-5  (PRN 30)    
1 39533U 14008A   26163.19898529  .00000091  00000+0  00000+0 0  9993
2 39533  53.6538 149.5231 0084241 231.2032 128.0417  2.00559413 89584
GPS BIIF-6  (PRN 06)    
1 39741U 14026A   26162.97584424 -.00000066  00000+0  00000+0 0  9998
2 39741  56.5010 331.7203 0038211 326.6427  33.1203  2.00561273 88438
GPS BIIF-7  (PRN 09)    
1 40105U 14045A   26163.06754285 -.00000023  00000+0  00000+0 0  9993
2 40105  55.3500  88.6689 0033078 118.3101 242.0091  2.00557996 85971
GPS BIIF-8  (PRN 03)    
1 40294U 14068A   26162.93790373 -.00000062  00000+0  00000+0 0  9993
2 40294  56.9840  31.1570 0066941  70.3939 290.3843  2.00575784 85108
GPS BIIF-9  (PRN 26)    
1 40534U 15013A   26163.07642420  .00000097  00000+0  00000+0 0  9993
2 40534  53.1683 204.3890 0109399  40.1067 320.7833  2.00551644 81720
GPS BIIF-10 (PRN 08)    
1 40730U 15033A   26163.23506952 -.00000023  00000+0  00000+0 0  9990
2 40730  53.9863 267.2908 0115051  30.2189 330.4612  2.00556451 79890
GPS BIIF-11 (PRN 10)    
1 41019U 15062A   26160.29992778 -.00000064  00000+0  00000+0 0  9996
2 41019  56.9540  31.1152 0111654 231.1327 127.9172  2.00566961 77677
GPS BIIF-12 (PRN 32)    
1 41328U 16007A   26161.88615589 -.00000012  00000+0  00000+0 0  9990
2 41328  55.5202  89.7095 0096068 247.3778 111.5924  2.00551975 75711
GPS BIII-1  (PRN 04)    
1 43873U 18109A   26162.78488541 -.00000014  00000+0  00000+0 0  9990
2 43873  55.6786  92.4003 0038177 198.0454 345.0218  2.00561303 54966
GPS BIII-2  (PRN 18)    
1 44506U 19056A   26162.66223346 -.00000066  00000+0  00000+0 0  9990
2 44506  55.6400 331.3626 0061795 197.5682 160.4551  2.00569454 49955
GPS BIII-3  (PRN 23)    
1 45854U 20041A   26161.50914235 -.00000064  00000+0  00000+0 0  9997
2 45854  56.6651  29.2031 0063583 204.6446 339.4563  2.00558723 43906
GPS BIII-4  (PRN 14)    
1 46826U 20078A   26163.28792468  .00000090  00000+0  00000+0 0  9994
2 46826  53.9803 210.9777 0073389 207.1142 157.4901  2.00564740 41411
GPS BIII-5  (PRN 11)    
1 48859U 21054A   26162.98603723 -.00000068  00000+0  00000+0 0  9994
2 48859  55.1772 332.6690 0025283 228.5780 104.2515  2.00569140 36648
GPS BIII-6  (PRN 28)    
1 55268U 23009A   26163.12704838  .00000093  00000+0  00000+0 0  9991
2 55268  55.1221 148.7180 0006256 318.0841 154.7932  2.00571739 25144
GPS BIII-7  (PRN 01)    
1 62339U 24242A   26161.86496509 -.00000065  00000+0  00000+0 0  9990
2 62339  54.8505 334.4380 0017308   3.9284 359.9607  2.00571298 11131
GPS BIII-8  (PRN 21)    
1 64202U 25116A   26155.36633038 -.00000073  00000+0  00000+0 0  9999
2 64202  55.2259  31.6468 0008452 337.8257 196.1658  2.00577081  7616
GPS BIII-9  (PRN 20)    
1 67588U 26017A   26162.71312166 -.00000020  00000+0  00000+0 0  9995
2 67588  55.0850  88.9750 0022116 257.8509 101.8874  2.00571113431506
GPS BIII-10 (PRN 13)    
1 68791U 26087A   26158.43909353  .00000057  00000+0  00000+0 0  9992
2 68791  54.9638 208.1735 0020931 107.2972 251.8874  2.00569573   638
